0332P      i  2016 03 17.3515  1.573073  0.489555  152.3297    3.8048    9.3791            20.5  2.0  332P-I/Ikeya-Murakami                                    MPEC 2016-ED0
0332P      j  2016 03 17.7739  1.575357  0.494294  152.7712    3.6729    9.4296            22.5  2.0  332P-J/Ikeya-Murakami                                    MPEC 2016-EI8
0333P         2016 04  3.8262  1.114579  0.736098   26.1263  115.5752  131.8572  20180623  15.0  4.0  333P/LINEAR                                              MPC104796
0334P         2017 05  7.6253  4.185655  0.364268   81.0398   92.3604   19.1002  20180623  10.5  4.0  334P/NEAT                                                MPC110498
0335P         2015 11  5.5572  1.629537  0.544744  162.2910  330.8453    7.2878  20180623  17.0  4.0  335P/Gibbs                                               MPC 10028
0336P         2017 02  3.2320  2.782296  0.446208  308.5453  298.2531   17.8370  20180623  13.5  4.0  336P/McNaught                                            MPC105244
0337P         2016 07 13.4303  1.654254  0.496868  160.9103  106.0830   15.3684  20180623  17.0  4.0  337P/WISE                                                MPC101101
0338P         2016 11 21.9224  2.301005  0.410292    4.4844    9.8027   25.3510  20180623  12.0  4.0  338P/McNaught                                            MPC104796
0339P         2016 07 24.1528  1.341081  0.636858   27.4771  172.7729    5.7427  20180623  17.0  4.0  339P/Gibbs                                               MPC101101
0340P         2016 11 18.4494  3.062252  0.279857   35.7596  291.7400    2.0786  20180623  13.0  4.0  340P/Boattini                                            MPC102957
0341P         2016 05 26.6546  2.518646  0.414001  312.1030   30.0549    3.7933  20180623  12.5  4.0  341P/Gibbs                                               MPC109148
0342P         2016 07  1.4842  0.053190  0.982516   57.2019   44.2408   13.0022  20180623  20.0  4.0  342P/SOHO                                                MPC101101
0343P         2017 01 27.5817  2.279584  0.583272  137.4946  257.2469    5.5827  20180623  14.0  4.0  343P/NEAT-LONEOS                                         MPC109148
0344P         2016 11  1.0274  2.820380  0.421333  140.5697  273.1872    3.4901  20180623  13.0  4.0  344P/Read                                                MPC109148
0345P         2016 07 15.4458  3.156532  0.219515  196.4547  154.5077    2.7247  20180623  12.0  4.0  345P/LINEAR                                              MPC109148
0346P         2017 02 15.5385  2.222070  0.503549  335.9596  102.5026   22.1822  20180623  14.0  4.0  346P/Catalina                                            MPC110086
0347P         2016 09 11.2049  2.222623  0.384391   98.3600  261.0484   11.7471  20180623  15.0  4.0  347P/PANSTARRS                                           MPC108599
0348P         2016 06 23.4077  2.212314  0.301870  134.2724  313.4639   17.5706  20180623  14.0  4.0  348P/PANSTARRS                                           MPC104796
0349P         2017 08 26.5631  2.498454  0.300172  255.9563  331.7625    5.4930  20180623  14.0  4.0  349P/Lemmon                                              MPC105244
0350P         2018 01 23.8340  3.749829  0.091336  145.9448   65.5037    7.3684  20180623  14.0  4.0  350P/McNaught                                            MPC110498
0351P         2015 11 17.2903  3.121322  0.296182  352.4583  283.4640   12.7872  20180623  12.5  4.0  351P/PANSTARRS                                           MPC105244
0352P         2017 06 21.6089  2.535680  0.617502  309.0760   28.1569   21.0161  20180623  11.5  4.0  352P/Skiff                                               MPC110086
0353P         2017 12 20.9411  2.213960  0.469261  230.3939  121.5694   28.4138  20180623  14.5  4.0  353P/McNaught                                            MPC108599
0354P         2016 11  9.0876  2.003660  0.125137  133.1383  320.1467    5.2541  20180623  15.5  4.0  354P/LINEAR                                              MPC105545
0355P         2017 10 12.6475  1.715814  0.506357  336.3194   51.4613   11.0324  20180623  15.5  2.0  355P/LINEAR-NEAT                                         MPC109594
0356P         2017 12 17.0386  2.689602  0.354134  226.1561  160.8044    9.6292  20180623  14.0  4.0  356P/WISE                                                MPC109148
0357P         2018 05 28.9576  2.526510  0.434295    1.5247   44.6091    6.3087  20180623  15.5  4.0  357P/Hill                                                MPC106350
0358P         2018 04 11.5872  2.401963  0.237602  299.8871   85.7203   11.0567  20180623  18.0  4.0  358P/PANSTARRS                                           MPC106350
0359P         2017 08 20.4327  3.139489  0.323181  200.1060  149.7914   10.2608  20180623  13.5  4.0  359P/LONEOS                                              MPC110086
0360P         2017 08 18.4013  1.860481  0.497895  354.1413    2.2292   24.0780  20180623  19.5  6.0  360P/WISE                                                MPC108599
0361P         2018 07  2.5032  2.780387  0.437838  219.2103  203.2779   13.8822  20180623  12.0  4.0  361P/Spacewatch                                          MPC109149
0362P         2016 08 23.8027  2.851495  0.280597   53.4896  192.6111   15.5705  20180623  12.9  2.0  362P                                                     MPEC 2017-V13
0363P         2018 03 22.9280  1.507887  0.557063  315.2853  169.9172    3.9753  20180623  17.5  4.0  363P/Lemmon                                              MPC110086
0364P         2018 06 24.3660  0.797855  0.722739  211.9273   46.2283   12.1553  20180623  17.0  2.0  364P/PANSTARRS                                           MPC110498
0365P         2018 02 10.7719  1.359117  0.573443   66.4110   87.4379    9.8367  20180623  17.0  4.0  365P/PANSTARRS                                           MPC110498
0366P         2018 07 21.8553  2.277788  0.349048  153.3390   70.7579    8.8594  20180623  15.0  4.0  366P/Spacewatch                                          MPC110086
0367P         2018 06 22.3047  2.521722  0.281453  173.1090   58.7217    8.4647  20180623  17.5  2.0  367P/Catalina                                            MPC110086
